CCSDS_OMM_VERS = 2.0
CREATION_DATE  = 
ORIGINATOR     = 

OBJECT_NAME    = ISS OBJECT XW
OBJECT_ID      = 1998-067XW
CENTER_NAME    = EARTH
REF_FRAME      = TEME
TIME_SYSTEM    = UTC
MEAN_ELEMENT_THEORY = SGP/SGP4

EPOCH          = 2026-02-24T05:53:45.302208
MEAN_MOTION    = 15.64937642
ECCENTRICITY   = .00041417
INCLINATION    = 51.6244
RA_OF_ASC_NODE = 133.8740
ARG_OF_PERICENTER = 19.2574
MEAN_ANOMALY   = 340.8577

EPHEMERIS_TYPE = 0
CLASSIFICATION_TYPE = U
NORAD_CAT_ID   = 66910
ELEMENT_SET_NO = 999
REV_AT_EPOCH   = 1307
BSTAR          = .10463365E-2
MEAN_MOTION_DOT = .105409E-2
MEAN_MOTION_DDOT = 0

CCSDS_OMM_VERS = 2.0
CREATION_DATE  = 
ORIGINATOR     = 

OBJECT_NAME    = ISS OBJECT XX
OBJECT_ID      = 1998-067XX
CENTER_NAME    = EARTH
REF_FRAME      = TEME
TIME_SYSTEM    = UTC
MEAN_ELEMENT_THEORY = SGP/SGP4

EPOCH          = 2026-02-24T05:31:08.743584
MEAN_MOTION    = 15.69268703
ECCENTRICITY   = .0006174
INCLINATION    = 51.6224
RA_OF_ASC_NODE = 133.0117
ARG_OF_PERICENTER = 11.8314
MEAN_ANOMALY   = 348.2827

EPHEMERIS_TYPE = 0
CLASSIFICATION_TYPE = U
NORAD_CAT_ID   = 66911
ELEMENT_SET_NO = 999
REV_AT_EPOCH   = 1307
BSTAR          = .14433711E-2
MEAN_MOTION_DOT = .175197E-2
MEAN_MOTION_DDOT = 0

CCSDS_OMM_VERS = 2.0
CREATION_DATE  = 
ORIGINATOR     = 

OBJECT_NAME    = ISS OBJECT XY
OBJECT_ID      = 1998-067XY
CENTER_NAME    = EARTH
REF_FRAME      = TEME
TIME_SYSTEM    = UTC
MEAN_ELEMENT_THEORY = SGP/SGP4

EPOCH          = 2026-02-24T05:06:53.035776
MEAN_MOTION    = 15.61165303
ECCENTRICITY   = .00021454
INCLINATION    = 51.6270
RA_OF_ASC_NODE = 135.1679
ARG_OF_PERICENTER = 23.8394
MEAN_ANOMALY   = 336.2699

EPHEMERIS_TYPE = 0
CLASSIFICATION_TYPE = U
NORAD_CAT_ID   = 66912
ELEMENT_SET_NO = 999
REV_AT_EPOCH   = 1304
BSTAR          = .87522724E-3
MEAN_MOTION_DOT = .75634E-3
MEAN_MOTION_DDOT = 0

CCSDS_OMM_VERS = 2.0
CREATION_DATE  = 
ORIGINATOR     = 

OBJECT_NAME    = ISS OBJECT XZ
OBJECT_ID      = 1998-067XZ
CENTER_NAME    = EARTH
REF_FRAME      = TEME
TIME_SYSTEM    = UTC
MEAN_ELEMENT_THEORY = SGP/SGP4

EPOCH          = 2026-02-23T14:51:13.783392
MEAN_MOTION    = 15.50631727
ECCENTRICITY   = .000987
INCLINATION    = 51.6312
RA_OF_ASC_NODE = 141.6993
ARG_OF_PERICENTER = 138.9197
MEAN_ANOMALY   = 221.2537

EPHEMERIS_TYPE = 0
CLASSIFICATION_TYPE = U
NORAD_CAT_ID   = 67683
ELEMENT_SET_NO = 999
REV_AT_EPOCH   = 260
BSTAR          = .67941E-3
MEAN_MOTION_DOT = .39458E-3
MEAN_MOTION_DDOT = 0

CCSDS_OMM_VERS = 2.0
CREATION_DATE  = 
ORIGINATOR     = 

OBJECT_NAME    = GXIBA-1
OBJECT_ID      = 1998-067YA
CENTER_NAME    = EARTH
REF_FRAME      = TEME
TIME_SYSTEM    = UTC
MEAN_ELEMENT_THEORY = SGP/SGP4

EPOCH          = 2026-02-24T06:04:04.283040
MEAN_MOTION    = 15.52128084
ECCENTRICITY   = .00113543
INCLINATION    = 51.6301
RA_OF_ASC_NODE = 138.4332
ARG_OF_PERICENTER = 133.1047
MEAN_ANOMALY   = 227.0895

EPHEMERIS_TYPE = 0
CLASSIFICATION_TYPE = U
NORAD_CAT_ID   = 67684
ELEMENT_SET_NO = 999
REV_AT_EPOCH   = 270
BSTAR          = .1073435E-2
MEAN_MOTION_DOT = .66339E-3
MEAN_MOTION_DDOT = 0

CCSDS_OMM_VERS = 2.0
CREATION_DATE  = 
ORIGINATOR     = 

OBJECT_NAME    = CORAL
OBJECT_ID      = 1998-067YB
CENTER_NAME    = EARTH
REF_FRAME      = TEME
TIME_SYSTEM    = UTC
MEAN_ELEMENT_THEORY = SGP/SGP4

EPOCH          = 2026-02-24T06:16:31.773504
MEAN_MOTION    = 15.50912243
ECCENTRICITY   = .00118177
INCLINATION    = 51.6307
RA_OF_ASC_NODE = 138.4900
ARG_OF_PERICENTER = 137.4940
MEAN_ANOMALY   = 222.6967

EPHEMERIS_TYPE = 0
CLASSIFICATION_TYPE = U
NORAD_CAT_ID   = 67685
ELEMENT_SET_NO = 999
REV_AT_EPOCH   = 270
BSTAR          = .65096049E-3
MEAN_MOTION_DOT = .38195E-3
MEAN_MOTION_DDOT = 0

CCSDS_OMM_VERS = 2.0
CREATION_DATE  = 
ORIGINATOR     = 

OBJECT_NAME    = ISS OBJECT YC
OBJECT_ID      = 1998-067YC
CENTER_NAME    = EARTH
REF_FRAME      = TEME
TIME_SYSTEM    = UTC
MEAN_ELEMENT_THEORY = SGP/SGP4

EPOCH          = 2026-02-24T06:13:37.297344
MEAN_MOTION    = 15.51210773
ECCENTRICITY   = .00077324
INCLINATION    = 51.6315
RA_OF_ASC_NODE = 138.4780
ARG_OF_PERICENTER = 107.7017
MEAN_ANOMALY   = 252.4817

EPHEMERIS_TYPE = 0
CLASSIFICATION_TYPE = U
NORAD_CAT_ID   = 67686
ELEMENT_SET_NO = 999
REV_AT_EPOCH   = 270
BSTAR          = .77141617E-3
MEAN_MOTION_DOT = .45811E-3
MEAN_MOTION_DDOT = 0

CCSDS_OMM_VERS = 2.0
CREATION_DATE  = 
ORIGINATOR     = 

OBJECT_NAME    = LEOPARD
OBJECT_ID      = 1998-067YD
CENTER_NAME    = EARTH
REF_FRAME      = TEME
TIME_SYSTEM    = UTC
MEAN_ELEMENT_THEORY = SGP/SGP4

EPOCH          = 2026-02-24T06:17:40.186752
MEAN_MOTION    = 15.50805538
ECCENTRICITY   = .00077654
INCLINATION    = 51.6309
RA_OF_ASC_NODE = 138.4961
ARG_OF_PERICENTER = 110.8701
MEAN_ANOMALY   = 249.3120

EPHEMERIS_TYPE = 0
CLASSIFICATION_TYPE = U
NORAD_CAT_ID   = 67687
ELEMENT_SET_NO = 999
REV_AT_EPOCH   = 262
BSTAR          = .58307916E-3
MEAN_MOTION_DOT = .33961E-3
MEAN_MOTION_DDOT = 0

CCSDS_OMM_VERS = 2.0
CREATION_DATE  = 
ORIGINATOR     = 

OBJECT_NAME    = ISS OBJECT YE
OBJECT_ID      = 1998-067YE
CENTER_NAME    = EARTH
REF_FRAME      = TEME
TIME_SYSTEM    = UTC
MEAN_ELEMENT_THEORY = SGP/SGP4

EPOCH          = 2026-02-24T06:14:51.109728
MEAN_MOTION    = 15.51068548
ECCENTRICITY   = .00076502
INCLINATION    = 51.6330
RA_OF_ASC_NODE = 138.4845
ARG_OF_PERICENTER = 109.9570
MEAN_ANOMALY   = 250.2244

EPHEMERIS_TYPE = 0
CLASSIFICATION_TYPE = U
NORAD_CAT_ID   = 67688
ELEMENT_SET_NO = 999
REV_AT_EPOCH   = 262
BSTAR          = .67527026E-3
MEAN_MOTION_DOT = .39807E-3
MEAN_MOTION_DDOT = 0

CCSDS_OMM_VERS = 2.0
CREATION_DATE  = 
ORIGINATOR     = 

OBJECT_NAME    = CREW DRAGON 12
OBJECT_ID      = 2026-031A
CENTER_NAME    = EARTH
REF_FRAME      = TEME
TIME_SYSTEM    = UTC
MEAN_ELEMENT_THEORY = SGP/SGP4

EPOCH          = 2026-02-24T05:14:04.047360
MEAN_MOTION    = 15.48257925
ECCENTRICITY   = .00084272
INCLINATION    = 51.6318
RA_OF_ASC_NODE = 138.9491
ARG_OF_PERICENTER = 128.0072
MEAN_ANOMALY   = 232.1679

EPHEMERIS_TYPE = 0
CLASSIFICATION_TYPE = U
NORAD_CAT_ID   = 67796
ELEMENT_SET_NO = 999
REV_AT_EPOCH   = 55421
BSTAR          = .22801862E-3
MEAN_MOTION_DOT = .11823E-3
MEAN_MOTION_DDOT = 0

