ISS OBJECT XW           
1 66910U 98067XW  26055.24566322  .00105409  00000+0  10463-2 0  9994
2 66910  51.6244 133.8740 0004141  19.2574 340.8577 15.64937642 13072
ISS OBJECT XX           
1 66911U 98067XX  26055.22996231  .00175197  00000+0  14434-2 0  9992
2 66911  51.6224 133.0117 0006174  11.8314 348.2827 15.69268703 13079
ISS OBJECT XY           
1 66912U 98067XY  26055.21311384  .00075634  00000+0  87523-3 0  9997
2 66912  51.6270 135.1679 0002145  23.8394 336.2699 15.61165303 13047
ISS OBJECT XZ           
1 67683U 98067XZ  26054.61890953  .00039458  00000+0  67941-3 0  9996
2 67683  51.6312 141.6993 0009870 138.9197 221.2537 15.50631727  2602
GXIBA-1                 
1 67684U 98067YA  26055.25282735  .00066339  00000+0  10734-2 0  9996
2 67684  51.6301 138.4332 0011354 133.1047 227.0895 15.52128084  2704
CORAL                   
1 67685U 98067YB  26055.26147886  .00038195  00000+0  65096-3 0  9996
2 67685  51.6307 138.4900 0011817 137.4940 222.6967 15.50912243  2702
ISS OBJECT YC           
1 67686U 98067YC  26055.25945946  .00045811  00000+0  77142-3 0  9997
2 67686  51.6315 138.4780 0007732 107.7017 252.4817 15.51210773  2709
LEOPARD                 
1 67687U 98067YD  26055.26227068  .00033961  00000+0  58308-3 0  9993
2 67687  51.6309 138.4961 0007765 110.8701 249.3120 15.50805538  2626
ISS OBJECT YE           
1 67688U 98067YE  26055.26031377  .00039807  00000+0  67527-3 0  9998
2 67688  51.6330 138.4845 0007650 109.9570 250.2244 15.51068548  2629
CREW DRAGON 12          
1 67796U 26031A   26055.21810240  .00011823  00000+0  22802-3 0  9994
2 67796  51.6318 138.9491 0008427 128.0072 232.1679 15.48257925554212
